[
  {
    "OBJECT_NAME": "STARLINK-3578",
    "OBJECT_ID": "22022S",
    "EPOCH": "2025-11-11T00:00:44.280000",
    "MEAN_MOTION": 15.08848744,
    "ECCENTRICITY": 0.0001558,
    "INCLINATION": 53.2115,
    "RA_OF_ASC_NODE": 181.9356,
    "ARG_OF_PERICENTER": 84.9934,
    "MEAN_ANOMALY": 275.1236,
    "EPHEMERIS_TYPE": 0,
    "CLASSIFICATION_TYPE": "U",
    "NORAD_CAT_ID": 51868,
    "ELEMENT_SET_NO": 999,
    "REV_AT_EPOCH": 20519,
    "BSTAR": 0.0001023,
    "MEAN_MOTION_DOT": 1.341e-05,
    "MEAN_MOTION_DDOT": 0.0,
    "TLE_LINE1": "1 51868U 22022S   25315.00051250  .00001341  00000+0  10230-3 0  9992",
    "TLE_LINE2": "2 51868  53.2115 181.9356 0001558  84.9934 275.1236 15.08848744205198",
    "COMMENT": "Grouped by shell and plane from TLE"
  },
  {
    "OBJECT_NAME": "STARLINK-3588",
    "OBJECT_ID": "22022T",
    "EPOCH": "2025-11-11T01:09:38.819808",
    "MEAN_MOTION": 15.08831018,
    "ECCENTRICITY": 0.0001524,
    "INCLINATION": 53.2154,
    "RA_OF_ASC_NODE": 181.722,
    "ARG_OF_PERICENTER": 85.8251,
    "MEAN_ANOMALY": 274.2916,
    "EPHEMERIS_TYPE": 0,
    "CLASSIFICATION_TYPE": "U",
    "NORAD_CAT_ID": 51869,
    "ELEMENT_SET_NO": 999,
    "REV_AT_EPOCH": 20520,
    "BSTAR": 8.845100000000001e-05,
    "MEAN_MOTION_DOT": 1.12e-05,
    "MEAN_MOTION_DDOT": 0.0,
    "TLE_LINE1": "1 51869U 22022T   25315.04836597  .00001120  00000+0  88451-4 0  9998",
    "TLE_LINE2": "2 51869  53.2154 181.7220 0001524  85.8251 274.2916 15.08831018205208",
    "COMMENT": "Grouped by shell and plane from TLE"
  },
  {
    "OBJECT_NAME": "STARLINK-3591",
    "OBJECT_ID": "22022U",
    "EPOCH": "2025-11-11T01:20:14.042112",
    "MEAN_MOTION": 15.08840582,
    "ECCENTRICITY": 0.0001373,
    "INCLINATION": 53.2139,
    "RA_OF_ASC_NODE": 181.6897,
    "ARG_OF_PERICENTER": 85.1124,
    "MEAN_ANOMALY": 275.0025,
    "EPHEMERIS_TYPE": 0,
    "CLASSIFICATION_TYPE": "U",
    "NORAD_CAT_ID": 51870,
    "ELEMENT_SET_NO": 999,
    "REV_AT_EPOCH": 20525,
    "BSTAR": 0.0001616,
    "MEAN_MOTION_DOT": 2.285e-05,
    "MEAN_MOTION_DDOT": 0.0,
    "TLE_LINE1": "1 51870U 22022U   25315.05571808  .00002285  00000+0  16160-3 0  9992",
    "TLE_LINE2": "2 51870  53.2139 181.6897 0001373  85.1124 275.0025 15.08840582205257",
    "COMMENT": "Grouped by shell and plane from TLE"
  },
  {
    "OBJECT_NAME": "STARLINK-3567",
    "OBJECT_ID": "22022V",
    "EPOCH": "2025-11-11T01:04:19.757568",
    "MEAN_MOTION": 15.08852466,
    "ECCENTRICITY": 0.000141,
    "INCLINATION": 53.2158,
    "RA_OF_ASC_NODE": 181.7388,
    "ARG_OF_PERICENTER": 88.6946,
    "MEAN_ANOMALY": 271.4207,
    "EPHEMERIS_TYPE": 0,
    "CLASSIFICATION_TYPE": "U",
    "NORAD_CAT_ID": 51871,
    "ELEMENT_SET_NO": 999,
    "REV_AT_EPOCH": 20531,
    "BSTAR": 0.0001968,
    "MEAN_MOTION_DOT": 2.847e-05,
    "MEAN_MOTION_DDOT": 0.0,
    "TLE_LINE1": "1 51871U 22022V   25315.04467312  .00002847  00000+0  19680-3 0  9990",
    "TLE_LINE2": "2 51871  53.2158 181.7388 0001410  88.6946 271.4207 15.08852466205310",
    "COMMENT": "Grouped by shell and plane from TLE"
  },
  {
    "OBJECT_NAME": "STARLINK-3554",
    "OBJECT_ID": "22022W",
    "EPOCH": "2025-11-11T01:14:56.005440",
    "MEAN_MOTION": 15.08841989,
    "ECCENTRICITY": 0.0001388,
    "INCLINATION": 53.2157,
    "RA_OF_ASC_NODE": 181.7058,
    "ARG_OF_PERICENTER": 94.6067,
    "MEAN_ANOMALY": 265.5084,
    "EPHEMERIS_TYPE": 0,
    "CLASSIFICATION_TYPE": "U",
    "NORAD_CAT_ID": 51872,
    "ELEMENT_SET_NO": 999,
    "REV_AT_EPOCH": 20520,
    "BSTAR": 0.00013688,
    "MEAN_MOTION_DOT": 1.891e-05,
    "MEAN_MOTION_DDOT": 0.0,
    "TLE_LINE1": "1 51872U 22022W   25315.05203710  .00001891  00000+0  13688-3 0  9992",
    "TLE_LINE2": "2 51872  53.2157 181.7058 0001388  94.6067 265.5084 15.08841989205202",
    "COMMENT": "Grouped by shell and plane from TLE"
  },
  {
    "OBJECT_NAME": "STARLINK-3582",
    "OBJECT_ID": "22022X",
    "EPOCH": "2025-11-11T00:30:20.568096",
    "MEAN_MOTION": 15.10324441,
    "ECCENTRICITY": 0.0003289,
    "INCLINATION": 53.2128,
    "RA_OF_ASC_NODE": 181.7131,
    "ARG_OF_PERICENTER": 127.6971,
    "MEAN_ANOMALY": 232.432,
    "EPHEMERIS_TYPE": 0,
    "CLASSIFICATION_TYPE": "U",
    "NORAD_CAT_ID": 51873,
    "ELEMENT_SET_NO": 999,
    "REV_AT_EPOCH": 20520,
    "BSTAR": 0.0019687,
    "MEAN_MOTION_DOT": 0.00032496,
    "MEAN_MOTION_DDOT": 0.0,
    "TLE_LINE1": "1 51873U 22022X   25315.02107139  .00032496  00000+0  19687-2 0  9997",
    "TLE_LINE2": "2 51873  53.2128 181.7131 0003289 127.6971 232.4320 15.10324441205204",
    "COMMENT": "Grouped by shell and plane from TLE"
  },
  {
    "OBJECT_NAME": "STARLINK-3574",
    "OBJECT_ID": "22022Y",
    "EPOCH": "2025-11-11T00:59:02.401728",
    "MEAN_MOTION": 15.08844372,
    "ECCENTRICITY": 0.0001518,
    "INCLINATION": 53.2145,
    "RA_OF_ASC_NODE": 181.7572,
    "ARG_OF_PERICENTER": 82.2501,
    "MEAN_ANOMALY": 277.8663,
    "EPHEMERIS_TYPE": 0,
    "CLASSIFICATION_TYPE": "U",
    "NORAD_CAT_ID": 51874,
    "ELEMENT_SET_NO": 999,
    "REV_AT_EPOCH": 20519,
    "BSTAR": 8.735600000000001e-05,
    "MEAN_MOTION_DOT": 1.103e-05,
    "MEAN_MOTION_DDOT": 0.0,
    "TLE_LINE1": "1 51874U 22022Y   25315.04100002  .00001103  00000+0  87356-4 0  9993",
    "TLE_LINE2": "2 51874  53.2145 181.7572 0001518  82.2501 277.8663 15.08844372205199",
    "COMMENT": "Grouped by shell and plane from TLE"
  },
  {
    "OBJECT_NAME": "STARLINK-3585",
    "OBJECT_ID": "22022Z",
    "EPOCH": "2025-11-11T02:02:36.915072",
    "MEAN_MOTION": 15.08843089,
    "ECCENTRICITY": 0.0001462,
    "INCLINATION": 53.2163,
    "RA_OF_ASC_NODE": 181.4698,
    "ARG_OF_PERICENTER": 91.936,
    "MEAN_ANOMALY": 268.18,
    "EPHEMERIS_TYPE": 0,
    "CLASSIFICATION_TYPE": "U",
    "NORAD_CAT_ID": 51875,
    "ELEMENT_SET_NO": 999,
    "REV_AT_EPOCH": 20521,
    "BSTAR": 0.00010999000000000001,
    "MEAN_MOTION_DOT": 1.463e-05,
    "MEAN_MOTION_DDOT": 0.0,
    "TLE_LINE1": "1 51875U 22022Z   25315.08514948  .00001463  00000+0  10999-3 0  9993",
    "TLE_LINE2": "2 51875  53.2163 181.4698 0001462  91.9360 268.1800 15.08843089205217",
    "COMMENT": "Grouped by shell and plane from TLE"
  },
  {
    "OBJECT_NAME": "STARLINK-3583",
    "OBJECT_ID": "22022AA",
    "EPOCH": "2025-11-11T00:53:44.508480",
    "MEAN_MOTION": 15.0884254,
    "ECCENTRICITY": 0.000144,
    "INCLINATION": 53.2158,
    "RA_OF_ASC_NODE": 181.7723,
    "ARG_OF_PERICENTER": 89.2498,
    "MEAN_ANOMALY": 270.8659,
    "EPHEMERIS_TYPE": 0,
    "CLASSIFICATION_TYPE": "U",
    "NORAD_CAT_ID": 51876,
    "ELEMENT_SET_NO": 999,
    "REV_AT_EPOCH": 20520,
    "BSTAR": 7.2297e-05,
    "MEAN_MOTION_DOT": 8.63e-06,
    "MEAN_MOTION_DDOT": 0.0,
    "TLE_LINE1": "1 51876U 22022AA  25315.03732070  .00000863  00000+0  72297-4 0  9990",
    "TLE_LINE2": "2 51876  53.2158 181.7723 0001440  89.2498 270.8659 15.08842540205204",
    "COMMENT": "Grouped by shell and plane from TLE"
  },
  {
    "OBJECT_NAME": "STARLINK-3575",
    "OBJECT_ID": "22022AC",
    "EPOCH": "2025-11-11T00:43:08.379840",
    "MEAN_MOTION": 15.08842263,
    "ECCENTRICITY": 0.0001369,
    "INCLINATION": 53.2161,
    "RA_OF_ASC_NODE": 181.806,
    "ARG_OF_PERICENTER": 85.3862,
    "MEAN_ANOMALY": 274.7287,
    "EPHEMERIS_TYPE": 0,
    "CLASSIFICATION_TYPE": "U",
    "NORAD_CAT_ID": 51878,
    "ELEMENT_SET_NO": 999,
    "REV_AT_EPOCH": 20520,
    "BSTAR": 0.00011700000000000001,
    "MEAN_MOTION_DOT": 1.575e-05,
    "MEAN_MOTION_DDOT": 0.0,
    "TLE_LINE1": "1 51878U 22022AC  25315.02995810  .00001575  00000+0  11700-3 0  9996",
    "TLE_LINE2": "2 51878  53.2161 181.8060 0001369  85.3862 274.7287 15.08842263205209",
    "COMMENT": "Grouped by shell and plane from TLE"
  },
  {
    "OBJECT_NAME": "STARLINK-3566",
    "OBJECT_ID": "22022AE",
    "EPOCH": "2025-11-11T00:48:24.309216",
    "MEAN_MOTION": 15.08839114,
    "ECCENTRICITY": 9.01e-05,
    "INCLINATION": 53.2152,
    "RA_OF_ASC_NODE": 181.5105,
    "ARG_OF_PERICENTER": 116.4475,
    "MEAN_ANOMALY": 243.661,
    "EPHEMERIS_TYPE": 0,
    "CLASSIFICATION_TYPE": "U",
    "NORAD_CAT_ID": 51880,
    "ELEMENT_SET_NO": 999,
    "REV_AT_EPOCH": 20520,
    "BSTAR": 5.1427e-05,
    "MEAN_MOTION_DOT": 5.31e-06,
    "MEAN_MOTION_DDOT": 0.0,
    "TLE_LINE1": "1 51880U 22022AE  25315.03361469  .00000531  00000+0  51427-4 0  9999",
    "TLE_LINE2": "2 51880  53.2152 181.5105 0000901 116.4475 243.6610 15.08839114205202",
    "COMMENT": "Grouped by shell and plane from TLE"
  },
  {
    "OBJECT_NAME": "STARLINK-4266",
    "OBJECT_ID": "22062AR",
    "EPOCH": "2025-11-11T01:43:25.317984",
    "MEAN_MOTION": 15.0884685,
    "ECCENTRICITY": 0.0001726,
    "INCLINATION": 53.214,
    "RA_OF_ASC_NODE": 186.6174,
    "ARG_OF_PERICENTER": 89.8985,
    "MEAN_ANOMALY": 270.2205,
    "EPHEMERIS_TYPE": 0,
    "CLASSIFICATION_TYPE": "U",
    "NORAD_CAT_ID": 52869,
    "ELEMENT_SET_NO": 999,
    "REV_AT_EPOCH": 18815,
    "BSTAR": 0.00016341,
    "MEAN_MOTION_DOT": 2.314e-05,
    "MEAN_MOTION_DDOT": 0.0,
    "TLE_LINE1": "1 52869U 22062AR  25315.07182081  .00002314  00000+0  16341-3 0  9992",
    "TLE_LINE2": "2 52869  53.2140 186.6174 0001726  89.8985 270.2205 15.08846850188159",
    "COMMENT": "Grouped by shell and plane from TLE"
  },
  {
    "OBJECT_NAME": "STARLINK-4207",
    "OBJECT_ID": "22062AT",
    "EPOCH": "2025-11-11T01:27:30.983328",
    "MEAN_MOTION": 15.08843656,
    "ECCENTRICITY": 0.0001542,
    "INCLINATION": 53.2151,
    "RA_OF_ASC_NODE": 186.6653,
    "ARG_OF_PERICENTER": 94.4688,
    "MEAN_ANOMALY": 265.648,
    "EPHEMERIS_TYPE": 0,
    "CLASSIFICATION_TYPE": "U",
    "NORAD_CAT_ID": 52871,
    "ELEMENT_SET_NO": 999,
    "REV_AT_EPOCH": 18815,
    "BSTAR": 9.0423e-05,
    "MEAN_MOTION_DOT": 1.152e-05,
    "MEAN_MOTION_DDOT": 0.0,
    "TLE_LINE1": "1 52871U 22062AT  25315.06077527  .00001152  00000+0  90423-4 0  9995",
    "TLE_LINE2": "2 52871  53.2151 186.6653 0001542  94.4688 265.6480 15.08843656188158",
    "COMMENT": "Grouped by shell and plane from TLE"
  }
]